GLOBALSTAR M084 [+]     
1 38040U 11080A   23241.46850216 -.00000076  00000+0  15505-3 0  9991
2 38040  51.9986 250.8122 0000453  70.0174  83.0003 12.62265284539601
GLOBALSTAR M080 [+]     
1 38041U 11080B   23242.04921251 -.00000090  00000+0  75746-4 0  9995
2 38041  52.0038 250.4191 0000465  45.9909 347.6999 12.62263998539944
GLOBALSTAR M082 [+]     
1 38042U 11080C   23242.14910785 -.00000118  00000+0 -82145-4 0  9990
2 38042  52.0058 205.4906 0000474 163.6968 264.0142 12.62270262540692
GLOBALSTAR M092 [+]     
1 38043U 11080D   23242.11224697 -.00000071  00000+0  18551-3 0  9994
2 38043  52.0083 295.9474 0000738  91.8836 288.4195 12.62271926539182
GLOBALSTAR M090 [+]     
1 38044U 11080E   23242.09936788 -.00000116  00000+0 -67698-4 0  9991
2 38044  51.9868 200.2976 0000096  87.7177 353.8740 12.62267211540678
GLOBALSTAR M086 [+]     
1 38045U 11080F   23242.04528316 -.00000118  00000+0 -79420-4 0  9999
2 38045  51.9879 200.9610 0000982 324.0466 112.4335 12.62269782540679
GLOBALSTAR M097 [+]     
1 39072U 13005A   23241.81767733 -.00000090  00000+0  77599-4 0  9994
2 39072  52.0038 115.5362 0000352  67.1081 292.9822 12.62270278487793
GLOBALSTAR M093 [+]     
1 39073U 13005B   23241.79104224 -.00000089  00000+0  83186-4 0  9999
2 39073  51.9803 109.9710 0000196  38.8155 321.2725 12.62266217487740
